[{"OBJECT_NAME":"STARLINK-4474","OBJECT_ID":"2022-101W","EPOCH":"2026-03-09T10:15:08.317440","MEAN_MOTION":15.08853734,"ECCENTRICITY":0.00019503,"INCLINATION":53.2185,"RA_OF_ASC_NODE":65.3038,"ARG_OF_PERICENTER":40.5655,"MEAN_ANOMALY":319.5483,"EPHEMERIS_TYPE":0,"CLASSIFICATION_TYPE":"U","NORAD_CAT_ID":53547,"ELEMENT_SET_NO":999,"REV_AT_EPOCH":19693,"BSTAR":0.00014085464,"MEAN_MOTION_DOT":1.955e-5,"MEAN_MOTION_DDOT":0},{"OBJECT_NAME":"DELFI-N3XT","OBJECT_ID":"2013-066N","EPOCH":"2026-03-09T17:56:16.820160","MEAN_MOTION":14.93675177,"ECCENTRICITY":0.00763289,"INCLINATION":97.8341,"RA_OF_ASC_NODE":349.2574,"ARG_OF_PERICENTER":176.1438,"MEAN_ANOMALY":184.0386,"EPHEMERIS_TYPE":0,"CLASSIFICATION_TYPE":"U","NORAD_CAT_ID":39428,"ELEMENT_SET_NO":999,"REV_AT_EPOCH":65977,"BSTAR":0.00065912071,"MEAN_MOTION_DOT":7.321e-5,"MEAN_MOTION_DDOT":0}]
